STARLINK-6148
1 57117U 23090S   26090.55272453  .00064721  00000+0  46955-2 0  9995
2 57117  43.0019 155.7202 0000403 275.0624  85.0173 15.03066928153693
